[{"OBJECT_NAME":"STARLINK-34033","OBJECT_ID":"2025-102Z","EPOCH":"2026-03-09T13:28:47.296128","MEAN_MOTION":14.9833278,"ECCENTRICITY":0.0003568,"INCLINATION":70.001,"RA_OF_ASC_NODE":114.7526,"ARG_OF_PERICENTER":269.7941,"MEAN_ANOMALY":90.2809,"EPHEMERIS_TYPE":0,"CLASSIFICATION_TYPE":"U","NORAD_CAT_ID":64045,"ELEMENT_SET_NO":999,"REV_AT_EPOCH":4586,"BSTAR":0.00028142,"MEAN_MOTION_DOT":3.267e-5,"MEAN_MOTION_DDOT":0},{"OBJECT_NAME":"DELTA 1 DEB","OBJECT_ID":"1975-052MU","EPOCH":"2026-02-28T13:52:08.081184","MEAN_MOTION":15.00067598,"ECCENTRICITY":0.0002701,"INCLINATION":98.1978,"RA_OF_ASC_NODE":183.1796,"ARG_OF_PERICENTER":358.8202,"MEAN_ANOMALY":66.2186,"EPHEMERIS_TYPE":0,"CLASSIFICATION_TYPE":"U","NORAD_CAT_ID":42659,"ELEMENT_SET_NO":999,"REV_AT_EPOCH":66142,"BSTAR":0.00087726141,"MEAN_MOTION_DOT":0.00010875,"MEAN_MOTION_DDOT":0}]
